[{"OBJECT_NAME":"STARLINK-4703","OBJECT_ID":"2022-114AP","EPOCH":"2026-03-09T22:39:41.992128","MEAN_MOTION":15.0884087,"ECCENTRICITY":0.00014238,"INCLINATION":53.2183,"RA_OF_ASC_NODE":292.7235,"ARG_OF_PERICENTER":81.7686,"MEAN_ANOMALY":278.3467,"EPHEMERIS_TYPE":0,"CLASSIFICATION_TYPE":"U","NORAD_CAT_ID":53855,"ELEMENT_SET_NO":999,"REV_AT_EPOCH":19301,"BSTAR":8.123266e-6,"MEAN_MOTION_DOT":-1.59e-6,"MEAN_MOTION_DDOT":0},{"OBJECT_NAME":"CZ-6A DEB","OBJECT_ID":"2022-151AFR","EPOCH":"2026-03-09T05:35:50.250336","MEAN_MOTION":14.7956831,"ECCENTRICITY":0.01345943,"INCLINATION":98.6622,"RA_OF_ASC_NODE":165.7254,"ARG_OF_PERICENTER":140.0218,"MEAN_ANOMALY":221.0996,"EPHEMERIS_TYPE":0,"CLASSIFICATION_TYPE":"U","NORAD_CAT_ID":56641,"ELEMENT_SET_NO":999,"REV_AT_EPOCH":15895,"BSTAR":0.00092929705,"MEAN_MOTION_DOT":8.055e-5,"MEAN_MOTION_DDOT":0}]
